[
    {
        "CCSDS_OMM_VERS": "3.0",
        "COMMENT": "GENERATED VIA SPACE-TRACK.ORG API",
        "CREATION_DATE": "2025-05-04T02:26:54",
        "ORIGINATOR": "18 SPCS",
        "OBJECT_NAME": "NAVSTAR 73 (USA 260)",
        "OBJECT_ID": "2015-013A",
        "CENTER_NAME": "EARTH",
        "REF_FRAME": "TEME",
        "TIME_SYSTEM": "UTC",
        "MEAN_ELEMENT_THEORY": "SGP4",
        "EPOCH": "2025-05-03T17:34:25.134240",
        "MEAN_MOTION": "2.00575970",
        "ECCENTRICITY": "0.00984490",
        "INCLINATION": "53.2464",
        "RA_OF_ASC_NODE": "221.1194",
        "ARG_OF_PERICENTER": "35.1181",
        "MEAN_ANOMALY": "325.5529",
        "EPHEMERIS_TYPE": "0",
        "CLASSIFICATION_TYPE": "U",
        "NORAD_CAT_ID": "40534",
        "ELEMENT_SET_NO": "999",
        "REV_AT_EPOCH": "7361",
        "BSTAR": "0.00000000000000",
        "MEAN_MOTION_DOT": "-0.00000036",
        "MEAN_MOTION_DDOT": "0.0000000000000",
        "SEMIMAJOR_AXIS": "26559.256",
        "PERIOD": "717.932",
        "APOAPSIS": "20442.594",
        "PERIAPSIS": "19919.648",
        "OBJECT_TYPE": "PAYLOAD",
        "RCS_SIZE": "LARGE",
        "COUNTRY_CODE": "US",
        "LAUNCH_DATE": "2015-03-25",
        "SITE": "AFETR",
        "DECAY_DATE": null,
        "FILE": "4718307",
        "GP_ID": "286797762",
        "TLE_LINE0": "0 NAVSTAR 73 (USA 260)",
        "TLE_LINE1": "1 40534U 15013A   25123.73223535 -.00000036  00000-0  00000-0 0  9999",
        "TLE_LINE2": "2 40534  53.2464 221.1194 0098449  35.1181 325.5529  2.00575970 73618"
    }
]